#dP2023  8  3  0  0  0.00000000      96 __u+U ITR00 FIT  IAC
## 2273 345600.00000000   900.00000000 60159 0.0000000000000
+  119   C06C07C08C09C10C11C12C13C14C16C19C20C21C22C23C24C25
+        C26C27C28C29C30C32C33C34C35C36C37C38C39C40C41C42C43
+        C44C45C46E02E03E04E05E07E08E09E10E11E12E13E14E15E18
+        E19E21E24E25E26E27E30E31E33E34E36G01G02G03G04G05G06
+        G07G08G09G10G11G12G13G14G15G16G17G18G19G20G21G22G23
+        G24G25G26G27G28G29G30G31G32J02J03J04R01R02R03R04R05
+        R07R08R09R11R12R13R14R15R16R17R18R19R20R21R22R24R25
++         9  9  7  8  9  7  7  6  9  9  7  6  7  6  7  7  7
++         6  6  6  6  6  6  7  7  5  8  6  7  9  9  8  6  8
++         7  6  6  5  5  5  6  6  6  6  5  6  6  6  6  7  5
++         6  6  7  5  7  5  5  6  5  7  6  6  5  5  5  6  5
++         5  5  6  5  5  5  6  5  6  5  5  6  5  6  6  7  6
++         6  6  6  6  6  6  5  6  6  7  8  8  7  7  7  7  8
++         8  6  5  5  6  6  5  6  6  7  7  7  8  6  5  7  6
%c M  cc GPS ccc cccc cccc cccc cccc ccccc ccccc ccccc ccccc
%c cc cc ccc ccc cccc cccc cccc cccc ccccc ccccc ccccc ccccc
%f  0.0000000  0.000000000  0.00000000000  0.000000000000000
%f  0.0000000  0.000000000  0.00000000000  0.000000000000000
%i    0    0    0    0      0      0      0      0         0
%i    0    0    0    0      0      0      0      0         0
/* INFORMATION & ANALYSIS CENTER (IAC)      ULTRA-RAPID DATA
/* S/V CLOCKS ARE ALIGNED TO GNSS TIME                      
/* G:C1WC2W R:C1PC2P E:C1XC5X C:C2IC6I J:C1CC2S             
/* PCV:IGS20_2247 OL/AL:FES2004  NONE     YN ORB:CoN CLK:CoN
*  2023 08 03 18 15  0.00000000
PC06 -17849.769892  36576.505479  10480.839483    778.656159
PC07  -2467.780313  35013.094781  23577.015474    125.884284
PC08 -10826.569327  19267.858626 -35952.848495    404.100506
PC09 -10831.801405  35553.620953  19777.205048    336.884295
PC10   3419.074479  37634.478540  19572.231880   -134.290817
PC11   6521.923021 -26162.167822   7199.869811    760.397269
PC12  16451.290942 -19671.813369 -10950.749369    840.903008
PC13  -3151.038175  21712.976544 -35874.938686    327.720246
PC14  -4147.488468 -22712.408629  15641.495068    166.238742
PC16 -18950.148702  36416.609302   9101.177478    -20.458081
PC19  12105.704879  23980.448240  -7588.417762   -952.394361
PC20  -2793.700012  18914.730347 -20332.973084    388.431001
PC21  17313.604205  -1865.248454  21820.799726   -943.882520
PC22  20811.447651  15569.126359  10191.678517   -367.288738
PC23 -22986.365948  -7154.942389 -14102.383054   -918.353200
PC24  15588.793936 -14982.844051 -17634.085887    244.577343
PC25  -6607.304471 -15280.596792 -22403.241999    181.769534
PC26  26830.005023  -6800.586284  -3426.460958   -158.050575
PC27 -18175.560849  12287.935289  17221.341035    179.164731
PC28 -14626.156627  -6364.253905  22900.143996    133.836745
PC29   2250.400682  23537.542268 -14832.526075    156.053450
PC30 -11422.017451  25322.053820   2567.749996     -2.995409
PC32 -17335.259840   1930.350935 -21770.835382   -534.375174
PC33 -12136.791057 -23904.296141   7710.823541   -928.302695
PC34  10661.336252 -25768.194994  -1249.986740    229.193852
PC35  14800.726467   6187.197884 -22847.722495    575.248502
PC36   5323.788669  15640.546672  22518.152967   -295.026503
PC37 -27239.517150   5584.641643   2520.420478   -801.724098
PC38 -19372.312143  19672.840614 -31892.738381     95.837322
PC39 -21289.936544  36186.268002   1940.896804     -4.124213
PC40  -6261.154360  31275.966691  27723.625084    -31.632831
PC41 -20749.660513 -16024.635416  -9498.943718   -893.105070
PC42   4130.246652 -17967.027984  20978.244874   -589.751221
PC43  -1608.026394 -24022.551267  14110.305755     33.666458
PC44  17841.357990 -12737.903922 -17297.319367    188.902889
PC45  23287.745115   6805.513624  13776.941914     -9.687557
PC46 -14329.397608  15241.200559  18492.094570    -73.802415
PE02 -18683.956904   7732.512629  21623.212055     53.548386
PE03 -12293.113722  18069.828358 -19972.840458    -42.406237
PE04    385.761917 -29236.349477   4606.846607   -181.270115
PE05 -17144.746071  -3789.137453 -23827.303397      5.658517
PE07  11783.122594  23591.776903  13462.116639    -64.727302
PE08   -586.438032  29175.403768  -5006.468329   -124.654006
PE09 -11655.898400 -23677.667762 -13387.543506   -107.626641
PE10   -690.861283 -18067.563521  23419.705434   -553.386404
PE11 -11267.970038 -11635.016849  24758.030916   2642.576250
PE12   9035.798295 -21227.655788  18540.074218   -643.840878
PE13  10565.493035  12089.990013 -24871.143745    -19.386904
PE14   7972.290102  29838.508298  -8978.171157    300.928126
PE15  -9389.598126  21261.504513 -18331.566517    -42.241991
PE18  -3568.755484 -23165.204881   4291.266975    371.628237
PE19  13393.103057 -15519.573100  21359.148644  -1930.912288
PE21  27692.079872   6518.838832  -8174.930826   -544.535282
PE24 -20585.371805 -18083.586422 -11227.738173   -245.716721
PE25 -27724.662532  -6765.044766   7869.402944   -609.289538
PE26  24387.542966  -4520.930375 -16152.430410    182.177751
PE27  21110.427602  17781.093868  10695.365749   -115.503504
PE30   1578.688585  18364.876412  23155.001576   -388.691004
PE31  -2187.113824 -18440.276310 -23037.889318     -1.843327
PE33  23829.466756 -17540.392236    517.007704     -1.922664
PE34 -23537.160846  17924.243999  -1185.574594    -59.588973
PE36 -24060.245309   4031.947889  16758.441940    -95.656331
PG01  -8958.969221  18824.944897 -16590.886516    170.039730
PG02 -14203.198852  19925.649096  -9617.753587   -569.361789
PG03   1940.267811  16523.496775 -20874.004415   -204.017239
PG04   -630.409398  26385.681155  -2313.538519    114.804393
PG05  14637.227556  -8853.386216  20164.049920   -137.405250
PG06  21541.264427  -2141.193374 -15394.778951    570.912827
PG07   7901.708418  13546.914333  21891.481438    106.199778
PG08  -7032.138170  21788.263043  13044.856422   -135.404911
PG09   7060.818016  24670.254308   6681.548934    -95.887030
PG10 -24278.634849 -11154.470942   -795.136322    -47.794633
PG11  23404.480715 -12267.111229  -2403.122684   -304.562023
PG12   3142.523208 -15492.491193 -21627.757177   -408.574370
PG13  12963.054591 -14940.894918  17433.884431    555.554408
PG14  22873.875351  13540.963157   1936.557237    142.818111
PG15   3940.019540 -23080.318329  11827.827503     64.196768
PG16 -18892.028594   3427.095375  18235.588325   -472.870707
PG17  13011.860214  12605.934766 -18951.223103    722.178081
PG18  -9737.059961 -11429.722042  21915.707999   -369.552129
PG19  14745.054746   4551.915827 -21860.821935    352.749098
PG20  22454.857678  -3625.575821  13590.914230    419.170804
PG21 -15779.123902  19300.892051  -7197.377338    151.289614
PG22 -14942.998320   -266.547545 -21504.505408    522.008502
PG23 -18124.152768 -16234.734074  10850.399897     50.720643
PG24  11279.872776 -20758.730211 -12072.462978   -278.569384
PG25 -11340.008824 -18106.003430 -16259.814860    460.053975
PG26 -24886.122360  -2564.190699   9299.083748    234.292882
PG27 -12956.928574  11157.815194  19957.791688    -15.455045
PG28 -20719.807192    748.509092 -16620.531731     79.051197
PG29  -4119.011895 -25416.317724   6249.189318   -607.038895
PG30  16667.752362   6470.124350  19839.849428   -499.329206
PG31 -24059.118633   8920.088387  -7836.090280   -221.220554
PG32 -14826.742065  -8664.240355 -20134.204508   -533.853039
PJ02 -28342.278885  20672.306317  28478.816255     -2.100354
PJ03 -33678.303255  25384.473200   7478.727646     -0.628485
PJ04 -19188.581307  25774.061190 -22175.164792     98.215673
PR01  12371.357558  22315.062862    155.358307     62.752530
PR02  14894.008657  11897.267881  16955.173457    -22.555640
PR03   9365.768453  -5581.580099  23104.412423     82.605712
PR04  -1239.874298 -19422.775962  16522.879224    197.245420
PR05 -11065.885463 -22978.004824    963.585387    116.765726
PR07  -8951.823120   6278.641608 -23006.794363     61.631315
PR08   1455.013794  19542.057454 -16255.065110    -71.943048
PR09 -24558.145731  -3334.565250  -5832.883983    134.747189
PR11  -8768.759346  10058.163088  21749.917503   -122.063224
PR12  12204.831494  10102.781848  20017.953052     29.795504
PR13  23854.313026   4463.760605   7851.057977    -37.765603
PR14  22406.273164  -4714.536096 -11248.074789     25.057708
PR15   7496.121350 -10324.062337 -22063.645342     87.316927
PR16 -11969.846321  -9929.747325 -20190.441649     17.347368
PR17  16437.213713 -15786.592908 -11405.044508      5.634079
PR18  11858.615334 -22026.689702   5108.654031     94.938687
PR19   2669.333603 -17744.482913  18118.959978   -242.178138
PR20 -11718.553993   -857.338414  22639.250362    -97.686013
PR21 -16479.393030  16513.288931  10351.068433    -27.615012
PR22 -11977.015497  21702.505894  -5979.779056    106.845298
PR24  12438.109235     77.740489 -22254.064626    -19.079716
PR25 -17276.766210  14940.292294  11385.241667     44.372111
EOF
